COSMOS 2534 [GLONASS-M] 
1 44299U 19030A   26192.63457279  .00000106  00000+0  00000+0 0  9999
2 44299  64.3707 191.7932 0013520 274.9315 259.4274  2.13102037 55441
BEIDOU-3 IGSO-2         
1 44337U 19035A   26192.95126816 -.00000109  00000+0  00000+0 0  9996
2 44337  55.2507 158.6460 0039635 216.4381  15.9219  1.00258468 25916
NAVSTAR 78 (USA 293)    
1 44506U 19056A   26192.58389041 -.00000086  00000+0  00000+0 0  9991
2 44506  55.6240 330.1738 0063286 198.1146 165.4440  2.00569835 50561
BEIDOU-3 M24            
1 44542U 19061A   26192.40537075  .00000094  00000+0  00000+0 0  9998
2 44542  54.3976 181.9112 0008586 359.5066   0.4938  1.86229238 46240
BEIDOU-3 M23            
1 44543U 19061B   26189.43788944  .00000122  00000+0  00000+0 0  9993
2 44543  54.3960 181.9796 0005860 339.6838 102.2392  1.86227401 46199
EUTELSAT 5 WEST B       
1 44624U 19067A   26192.84899052 -.00000038  00000+0  00000+0 0  9998
2 44624   0.0626 351.2134 0002990 121.3212 117.8462  1.00271396 24685
BEIDOU-3 M22            
1 44793U 19078A   26192.24557439 -.00000063  00000+0  00000+0 0  9999
2 44793  53.9127 298.9816 0005741  49.9615 310.1118  1.86227377 45096
BEIDOU-3 M21            
1 44794U 19078B   26189.16367219 -.00000063  00000+0  00000+0 0  9992
2 44794  53.8889 299.0507 0003790  48.5315 311.5256  1.86228045 45040
COSMOS 2544 [GLONASS-M] 
1 44850U 19088A   26192.43092138 -.00000019  00000+0  00000+0 0  9996
2 44850  65.5781  72.9223 0012343 255.3717 104.5561  2.13103003 51239
BEIDOU-3 M19            
1 44864U 19090A   26190.26823391 -.00000047  00000+0  00000+0 0  9997
2 44864  56.5775  62.0617 0016982 297.5653 280.5359  1.86231621 44648
BEIDOU-3 M20            
1 44865U 19090B   26192.70416400 -.00000043  00000+0  00000+0 0  9994
2 44865  56.5815  62.0158 0014661 312.6423 188.2045  1.86231333 44679
BEIDOU-3 G2             
1 45344U 20017A   26192.89226338 -.00000139  00000+0  00000+0 0  9993
2 45344   2.9112  47.6718 0002039  59.3148 224.0695  1.00269553 23503
COSMOS 2545 [GLONASS-M] 
1 45358U 20018A   26188.87178822 -.00000052  00000+0  00000+0 0  9990
2 45358  64.3418 311.6924 0009213 230.0449 129.8870  2.13102711 49103
BEIDOU-3 G3             
1 45807U 20040A   26192.80069582 -.00000351  00000+0  00000+0 0  9996
2 45807   2.5040  67.4759 0001762 327.4813 293.4558  1.00265664 22313
NAVSTAR 79 (USA 304)    
1 45854U 20041A   26192.41369499 -.00000052  00000+0  00000+0 0  9994
2 45854  56.6842  28.0045 0064962 204.6177 333.3873  2.00557807 44521
GALAXY 30 (G-30)        
1 46114U 20056C   26192.75406277  .00000000  00000+0  00000+0 0  9995
2 46114   0.0298  46.6859 0001931  69.9246 319.5079  1.00270605 21531
COSMOS 2547 [GLONASS-K] 
1 46805U 20075A   26192.34632256  .00000110  00000+0  00000+0 0  9998
2 46805  64.6015 191.6691 0009439 239.8003 120.1351  2.13100073 44424
NAVSTAR 80 (USA 309)    
1 46826U 20078A   26192.68570515  .00000101  00000+0  00000+0 0  9990
2 46826  53.9778 209.7851 0074473 207.7146 143.8794  2.00564791 41994
NAVSTAR 81 (USA 319)    
1 48859U 21054A   26192.95337247 -.00000088  00000+0  00000+0 0  9991
2 48859  55.1616 331.4645 0026381 228.5362 142.6846  2.00567154 37252
QZS-1R (MICHIBIKI-1R)   
1 49336U 21096A   26191.59113988 -.00000288  00000+0  00000+0 0  9993
2 49336  37.5070  79.2376 0754836 272.1562 282.0570  1.00246773 17249
GSAT0223 (GALILEO 27)   
1 49809U 21116A   26192.62286947 -.00000086  00000+0  00000+0 0  9998
2 49809  57.1523 341.0161 0002390 195.7836 160.7891  1.70475848 28594
GSAT0224 (GALILEO 28)   
1 49810U 21116B   26191.27355816 -.00000080  00000+0  00000+0 0  9996
2 49810  57.1533 341.0513 0001790 180.2049 180.8962  1.70475962 28607
COSMOS 2557 [GLONASS-K] 
1 52984U 22075A   26192.04119223 -.00000063  00000+0  00000+0 0  9994
2 52984  64.2833 313.6457 0010777 271.9721  87.9097  2.13102395 31220
COSMOS 2559 [GLONASS-K] 
1 54031U 22130A   26192.33014715 -.00000064  00000+0  00000+0 0  9994
2 54031  64.2555 313.7175 0013036 180.6579 179.3456  2.13101618 29209
COSMOS 2564 [GLONASS-M] 
1 54377U 22161A   26192.64257159  .00000106  00000+0  00000+0 0  9992
2 54377  64.7436 191.8998 0012251 225.0441 134.8846  2.13101968 28153
NAVSTAR 82 (USA 343)    
1 55268U 23009A   26191.13810753  .00000048  00000+0  00000+0 0  9997
2 55268  55.1236 147.6170 0006307 319.4575 219.6291  2.00569929 25702
BEIDOU-3 G4             
1 56564U 23066A   26192.87781818 -.00000276  00000+0  00000+0 0  9995
2 56564   0.4632 337.9255 0004866 188.1650 219.7465  1.00273609 11644
NVS-01 (IRNSS-1J)       
1 56759U 23076A   26192.80442251 -.00000330  00000+0  00000+0 0  9991
2 56759   2.1103 243.2475 0003529   7.3711  98.1724  1.00266230 11368
COSMOS 2569 [GLONASS-K2]
1 57517U 23114A   26192.18560794 -.00000021  00000+0  00000+0 0  9998
2 57517  65.3157  71.8115 0009809 296.2031  63.7608  2.13103691 22770
BEIDOU-3 M28            
1 58654U 23207A   26192.46242514 -.00000046  00000+0  00000+0 0  9999
2 58654  55.7742  61.4842 0002523   3.0712 356.9961  1.86229632 17297
BEIDOU-3 M26            
1 58655U 23207B   26191.72295872 -.00000047  00000+0  00000+0 0  9994
2 58655  55.7759  61.4958 0002139 324.4555  35.5938  1.86229637 17268
